COSMOS 2507 (RODNIK-S *)
1 40920U 15050A   26160.58525823  .00000107  00000+0  70431-3 0  9994
2 40920  82.4919  84.4024 0010536  12.7520 347.3824 12.42926975485919
COSMOS 2508 (RODNIK-S *)
1 40921U 15050B   26160.62070069  .00000063  00000+0  38192-3 0  9996
2 40921  82.4871  82.8884 0015363  42.3669 317.8594 12.42914184485903
COSMOS 2509 (RODNIK-S *)
1 40922U 15050C   26160.56035450  .00000039  00000+0  21282-3 0  9990
2 40922  82.4880  83.0276 0015837  58.4505 301.8119 12.42883572485930
LINGQIAO VIDEO A        
1 40959U 15057B   26160.64053844  .00000815  00000+0  12130-3 0  9997
2 40959  97.6623 155.8150 0015454 297.5703  62.3938 14.77383541574290
LINGQIAO VIDEO B        
1 40960U 15057C   26160.61775547  .00000790  00000+0  11747-3 0  9992
2 40960  97.6589 156.9588 0015583 297.6670  62.2959 14.77489464574335
JILIN-1                 
1 40961U 15057D   26160.49928527  .00000805  00000+0  11773-3 0  9993
2 40961  97.6506 160.2478 0015420 290.6817  69.2741 14.78147877574478
FOX-1A (AO-85)          
1 40967U 15058D   26160.50473677  .00002485  00000+0  22900-3 0  9993
2 40967  64.7758 302.8578 0130003  59.6042 301.7845 14.90932457112423
SINOD-D 1               
1 40968U 15058E   26160.52375954  .00003174  00000+0  25988-3 0  9990
2 40968  64.7759 282.9106 0118605  56.1390 305.0942 14.95856209115515
ELEKTRO-L 2             
1 41105U 15074A   26160.26557611 -.00000102  00000+0  00000+0 0  9998
2 41105   6.6730  70.6207 0001007 284.5070 343.6389  1.00271831 38427
DAMPE                   
1 41173U 15078A   26160.58566926  .00001513  00000+0  53372-4 0  9992
2 41173  97.4562 166.0156 0013727 100.5032 259.7756 15.30767038583385
ORBCOMM FM114           
1 41179U 15081A   26160.37647890  .00000419  00000+0  12488-3 0  9995
2 41179  47.0059  38.9321 0001986 175.0900 185.0006 14.58849522556612
ORBCOMM FM110           
1 41182U 15081D   26160.36498184  .00000649  00000+0  17357-3 0  9993
2 41182  47.0029  38.4278 0002811  30.7544 329.3506 14.58868027556482
ORBCOMM FM112           
1 41184U 15081F   26160.12999248  .00000569  00000+0  15653-3 0  9994
2 41184  47.0001 308.3470 0003239 182.2677 177.8194 14.58892085557775
ORBCOMM FM113           
1 41185U 15081G   26160.10637007  .00000392  00000+0  11906-3 0  9996
2 41185  47.0018 308.8310 0001810 192.4742 167.6099 14.58849888557753
ORBCOMM FM108           
1 41187U 15081J   26159.93185668  .00000511  00000+0  14433-3 0  9999
2 41187  47.0040 221.2288 0002531 186.7177 173.3675 14.58862719558877
ORBCOMM FM117           
1 41188U 15081K   26160.44524337  .00000397  00000+0  12031-3 0  9992
2 41188  47.0001 217.4377 0003073 191.7744 168.3070 14.58859030558997
ORBCOMM FM116           
1 41189U 15081L   26158.71361229  .00000857  00000+0  21737-3 0  9993
2 41189  47.0035 315.4145 0001121   3.5235 356.5659 14.58869594557555
HORYU-4                 
1 41340U 16012D   26160.29259375  .00328479  00000+0  10049-2 0  9997
2 41340  30.9844 136.7554 0003255 219.0732 140.9694 15.90004490569557
ZIYUAN 3-02 (ZY 3-02)   
1 41556U 16033A   26160.62626242  .00004844  00000+0  21859-3 0  9996
2 41556  97.3835 236.5451 0011534 319.9454  40.0931 15.21408117556837
CARTOSAT-2C             
1 41599U 16040A   26160.61793616  .00003674  00000+0  17735-3 0  9998
2 41599  97.4490 220.6998 0009969 154.7197 205.4527 15.19259008552564
LAPAN-A3                
1 41603U 16040E   26160.61978197  .00003046  00000+0  97554-4 0  9994
2 41603  97.1486 157.0144 0011684  50.3382 309.8890 15.33056388553657
GAOFEN-3                
1 41727U 16049A   26160.59114741  .00000093  00000+0  41341-4 0  9996
2 41727  98.4016 168.4920 0001234  99.2655 260.8674 14.42214633517553
CAS-2T & KS-1Q          
1 41847U 16066G   26160.48328973  .00001622  00000+0  23478-3 0  9999
2 41847  98.3822 236.3075 0342510 152.7905 209.1703 14.44668740503686
YUNHAI-1 01             
1 41857U 16068A   26160.62386456  .00000539  00000+0  21418-3 0  9996
2 41857  98.5835 171.7015 0006443  61.2817 298.9014 14.32701124500743
RESOURCESAT-2A          
1 41877U 16074A   26160.61028616  .00000533  00000+0  26302-3 0  9996
2 41877  98.7522 234.1765 0003351  97.3639 262.7919 14.21615604493225
